[
    {
        "Altitude(m)": 607886.7318283123,
        "Argument of Periapsis(deg)": 0.0,
        "Eccentricity": 0.0,
        "Inclination(deg)": 60.0,
        "Latitude(deg)": 40.998553028581746,
        "Longitude(deg)": 139.9730088839509,
        "Mean Anomaly(deg)": 49.09089999999999,
        "RAAN(deg)": 210.0,
        "Satellite Name": "Test1 927",
        "Satellite Number": 927,
        "Semi-Major Axis(m)": 6980739.136638005,
        "Time(s)": 0
    },
    {
        "Altitude(m)": 607987.6458457636,
        "Argument of Periapsis(deg)": 0.00010418945913296404,
        "Eccentricity": 0.0,
        "Inclination(deg)": 60.0,
        "Latitude(deg)": 41.46364279065805,
        "Longitude(deg)": 140.4772380834214,
        "Mean Anomaly(deg)": 49.711006145461845,
        "RAAN(deg)": 209.99957995086027,
        "Satellite Name": "Test1 927",
        "Satellite Number": 927,
        "Semi-Major Axis(m)": 6980739.136638005,
        "Time(s)": 10
    }
]